HIMAWARI-8              
1 40267U 14060A   24038.82223189 -.00000271  00000+0  00000+0 0  9991
2 40267   0.0501 249.1507 0000534  81.1353 243.7821  1.00269638 34131
